[{"OBJECT_NAME":"STARLINK-32260","OBJECT_ID":"2024-183P","EPOCH":"2026-03-09T11:26:59.200512","MEAN_MOTION":15.30189376,"ECCENTRICITY":0.000123,"INCLINATION":53.1603,"RA_OF_ASC_NODE":143.154,"ARG_OF_PERICENTER":111.023,"MEAN_ANOMALY":249.0903,"EPHEMERIS_TYPE":0,"CLASSIFICATION_TYPE":"U","NORAD_CAT_ID":61522,"ELEMENT_SET_NO":999,"REV_AT_EPOCH":7962,"BSTAR":2.91165e-7,"MEAN_MOTION_DOT":-3.5e-6,"MEAN_MOTION_DDOT":0},{"OBJECT_NAME":"CZ-6A DEB","OBJECT_ID":"2024-140GE","EPOCH":"2026-03-09T23:15:37.114848","MEAN_MOTION":15.28179091,"ECCENTRICITY":0.00907227,"INCLINATION":89.625,"RA_OF_ASC_NODE":325.5051,"ARG_OF_PERICENTER":77.5431,"MEAN_ANOMALY":283.5952,"EPHEMERIS_TYPE":0,"CLASSIFICATION_TYPE":"U","NORAD_CAT_ID":60803,"ELEMENT_SET_NO":999,"REV_AT_EPOCH":8608,"BSTAR":0.0028689301,"MEAN_MOTION_DOT":0.00089907,"MEAN_MOTION_DDOT":0}]
